CCSDS_OMM_VERS,COMMENT,CREATION_DATE,ORIGINATOR,OBJECT_NAME,OBJECT_ID,CENTER_NAME,REF_FRAME,TIME_SYSTEM,MEAN_ELEMENT_THEORY,EPOCH,MEAN_MOTION,ECCENTRICITY,INCLINATION,RA_OF_ASC_NODE,ARG_OF_PERICENTER,MEAN_ANOMALY,EPHEMERIS_TYPE,CLASSIFICATION_TYPE,NORAD_CAT_ID,ELEMENT_SET_NO,REV_AT_EPOCH,BSTAR,MEAN_MOTION_DOT,MEAN_MOTION_DDOT,SEMIMAJOR_AXIS,PERIOD,APOAPSIS,PERIAPSIS,OBJECT_TYPE,RCS_SIZE,COUNTRY_CODE,LAUNCH_DATE,SITE,DECAY_DATE,FILE,GP_ID,TLE_LINE0,TLE_LINE1,TLE_LINE2
2,GENERATED VIA SPACE-TRACK.ORG API,2018-09-06T17:13:25,18 SPCS,BREEZE-M R/B,2000-029B,EARTH,TEME,UTC,SGP4,2018-09-06T06:34:40.475712,1.00314743,0.0270072,11.9812,27.5399,265.1314,302.7428,0,U,26373,999,6691,0.0,-2.65e-06,0,42152.693,1435.481,36912.984,34636.132,ROCKET BODY,LARGE,CIS,2000-06-06,TTMTR,,2329156,122954752,0 BREEZE-M R/B,1 26373U 00029B   18249.27407958 -.00000265  00000-0  00000+0 0  9991,2 26373  11.9812  27.5399 0270072 265.1314 302.7428  1.00314743 66911
2,GENERATED VIA SPACE-TRACK.ORG API,2018-09-07T16:14:48,18 SPCS,BREEZE-M R/B,2000-029B,EARTH,TEME,UTC,SGP4,2018-09-06T16:49:12.766080,1.00314675,0.0270074,11.9815,27.5361,265.1425,96.856,0,U,26373,999,6693,0.0,-2.67e-06,0,42152.712,1435.482,36913.012,34636.142,ROCKET BODY,LARGE,CIS,2000-06-06,TTMTR,,2329708,122983116,0 BREEZE-M R/B,1 26373U 00029B   18249.70084220 -.00000267 +00000-0 +00000-0 0  9995,2 26373 011.9815 027.5361 0270074 265.1425 096.8560 01.00314675066932
2,GENERATED VIA SPACE-TRACK.ORG API,2018-09-07T23:35:58,18 SPCS,BREEZE-M R/B,2000-029B,EARTH,TEME,UTC,SGP4,2018-09-07T04:51:14.275584,1.00314581,0.0270085,11.982,27.5315,265.1514,277.9283,0,U,26373,999,6693,0.0,-2.7e-06,0,42152.738,1435.484,36913.086,34636.121,ROCKET BODY,LARGE,CIS,2000-06-06,TTMTR,,2329887,122995157,0 BREEZE-M R/B,1 26373U 00029B   18250.20224856 -.00000270 +00000-0 +00000-0 0  9997,2 26373 011.9820 027.5315 0270085 265.1514 277.9283 01.00314581066938
2,GENERATED VIA SPACE-TRACK.ORG API,2018-09-08T16:57:27,18 SPCS,BREEZE-M R/B,2000-029B,EARTH,TEME,UTC,SGP4,2018-09-07T16:56:33.929664,1.00314492,0.0270091,11.9824,27.527,265.1643,99.8246,0,U,26373,999,6694,0.0,-2.72e-06,0,42152.763,1435.485,36913.137,34636.12,ROCKET BODY,LARGE,CIS,2000-06-06,TTMTR,,2330205,123011213,0 BREEZE-M R/B,1 26373U 00029B   18250.70594826 -.00000272 +00000-0 +00000-0 0  9991,2 26373 011.9824 027.5270 0270091 265.1643 099.8246 01.00314492066944
2,GENERATED VIA SPACE-TRACK.ORG API,2018-09-08T22:08:26,18 SPCS,BREEZE-M R/B,2000-029B,EARTH,TEME,UTC,SGP4,2018-09-08T06:03:52.913664,1.00314389,0.0270105,11.9828,27.5221,265.1744,297.2701,0,U,26373,999,6694,0.0,-2.74e-06,0,42152.792,1435.486,36913.225,34636.089,ROCKET BODY,LARGE,CIS,2000-06-06,TTMTR,,2330215,123019782,0 BREEZE-M R/B,1 26373U 00029B   18251.25269576 -.00000274 +00000-0 +00000-0 0  9995,2 26373 011.9828 027.5221 0270105 265.1744 297.2701 01.00314389066947
2,GENERATED VIA SPACE-TRACK.ORG API,2018-09-08T22:22:49,18 SPCS,BREEZE-M R/B,2000-029B,EARTH,TEME,UTC,SGP4,2018-09-08T17:03:55.992672,1.0031431,0.0270111,11.9832,27.518,265.1865,102.796,0,U,26373,999,6694,0.0,-2.76e-06,0,42152.814,1435.488,36913.273,34636.085,ROCKET BODY,LARGE,CIS,2000-06-06,TTMTR,,2330233,123024904,0 BREEZE-M R/B,1 26373U 00029B   18251.71106473 -.00000276  00000-0  00000+0 0  9993,2 26373  11.9832  27.5180 0270111 265.1865 102.7960  1.00314310 66948
2,GENERATED VIA SPACE-TRACK.ORG API,2018-09-10T18:18:42,18 SPCS,BREEZE-M R/B,2000-029B,EARTH,TEME,UTC,SGP4,2018-09-09T17:11:12.189984,1.00314123,0.0270136,11.984,27.5092,265.2087,105.7415,0,U,26373,999,6696,0.0,-2.8e-06,0,42152.867,1435.49,36913.432,34636.031,ROCKET BODY,LARGE,CIS,2000-06-06,TTMTR,,2331184,123057942,0 BREEZE-M R/B,1 26373U 00029B   18252.71611331 -.00000280 +00000-0 +00000-0 0  9994,2 26373 011.9840 027.5092 0270136 265.2087 105.7415 01.00314123066965
2,GENERATED VIA SPACE-TRACK.ORG API,2018-09-11T16:03:41,18 SPCS,BREEZE-M R/B,2000-029B,EARTH,TEME,UTC,SGP4,2018-09-10T15:35:23.754336,1.00313949,0.0270161,11.9848,27.5009,265.2312,82.8352,0,U,26373,999,6696,0.0,-2.83e-06,0,42152.916,1435.493,36913.588,34635.973,ROCKET BODY,LARGE,CIS,2000-06-06,TTMTR,,2331651,123078647,0 BREEZE-M R/B,1 26373U 00029B   18253.64958049 -.00000283 +00000-0 +00000-0 0  9990,2 26373 011.9848 027.5009 0270161 265.2312 082.8352 01.00313949066960
2,GENERATED VIA SPACE-TRACK.ORG API,2018-09-11T14:27:08,18 SPCS,BREEZE-M R/B,2000-029B,EARTH,TEME,UTC,SGP4,2018-09-11T05:20:32.301312,1.00313842,0.0270188,11.9852,27.4956,265.2445,289.7629,0,U,26373,999,6696,0.0,-2.85e-06,0,42152.945,1435.494,36913.732,34635.888,ROCKET BODY,LARGE,CIS,2000-06-06,TTMTR,,2331508,123070071,0 BREEZE-M R/B,1 26373U 00029B   18254.22259608 -.00000285  00000-0  00000+0 0  9991,2 26373  11.9852  27.4956 0270188 265.2445 289.7629  1.00313842 66968
2,GENERATED VIA SPACE-TRACK.ORG API,2018-09-12T17:35:40,18 SPCS,BREEZE-M R/B,2000-029B,EARTH,TEME,UTC,SGP4,2018-09-11T21:15:42.020928,1.00313729,0.0270201,11.9858,27.4897,265.2623,169.2941,0,U,26373,999,6698,0.0,-2.86e-06,0,42152.977,1435.496,36913.82,34635.864,ROCKET BODY,LARGE,CIS,2000-06-06,TTMTR,,2332087,123099561,0 BREEZE-M R/B,1 26373U 00029B   18254.88590302 -.00000286 +00000-0 +00000-0 0  9994,2 26373 011.9858 027.4897 0270201 265.2623 169.2941 01.00313729066987
2,GENERATED VIA SPACE-TRACK.ORG API,2018-09-12T22:10:25,18 SPCS,BREEZE-M R/B,2000-029B,EARTH,TEME,UTC,SGP4,2018-09-12T05:27:56.323008,1.00313667,0.0270213,11.986,27.4867,265.2703,292.7363,0,U,26373,999,6698,0.0,-2.86e-06,0,42152.995,1435.497,36913.888,34635.831,ROCKET BODY,LARGE,CIS,2000-06-06,TTMTR,,2332120,123109418,0 BREEZE-M R/B,1 26373U 00029B   18255.22773522 -.00000286 +00000-0 +00000-0 0  9990,2 26373 011.9860 027.4867 0270213 265.2703 292.7363 01.00313667066980
2,GENERATED VIA SPACE-TRACK.ORG API,2018-09-13T17:41:40,18 SPCS,BREEZE-M R/B,2000-029B,EARTH,TEME,UTC,SGP4,2018-09-12T15:49:59.222208,1.0031359,0.0270226,11.9864,27.4829,265.2822,88.73,0,U,26373,999,6698,0.0,-2.87e-06,0,42153.016,1435.498,36913.965,34635.797,ROCKET BODY,LARGE,CIS,2000-06-06,TTMTR,,2332471,123127488,0 BREEZE-M R/B,1 26373U 00029B   18255.65971322 -.00000287 +00000-0 +00000-0 0  9996,2 26373 011.9864 027.4829 0270226 265.2822 088.7300 01.00313590066987
2,GENERATED VIA SPACE-TRACK.ORG API,2018-09-13T22:23:03,18 SPCS,BREEZE-M R/B,2000-029B,EARTH,TEME,UTC,SGP4,2018-09-13T03:51:56.765088,1.00313498,0.0270237,11.9868,27.4785,265.2952,269.7793,0,U,26373,999,6699,0.0,-2.87e-06,0,42153.042,1435.499,36914.038,34635.776,ROCKET BODY,LARGE,CIS,2000-06-06,TTMTR,,2332517,123136060,0 BREEZE-M R/B,1 26373U 00029B   18256.16107367 -.00000287 +00000-0 +00000-0 0  9993,2 26373 011.9868 027.4785 0270237 265.2952 269.7793 01.00313498066993
2,GENERATED VIA SPACE-TRACK.ORG API,2018-09-13T22:26:37,18 SPCS,BREEZE-M R/B,2000-029B,EARTH,TEME,UTC,SGP4,2018-09-13T15:57:17.934624,1.00313411,0.0270252,11.9872,27.4741,265.3088,91.679,0,U,26373,999,6699,0.0,-2.87e-06,0,42153.066,1435.5,36914.126,34635.736,ROCKET BODY,LARGE,CIS,2000-06-06,TTMTR,,2332523,123140996,0 BREEZE-M R/B,1 26373U 00029B   18256.66479091 -.00000287  00000-0  00000+0 0  9993,2 26373  11.9872  27.4741 0270252 265.3088  91.6790  1.00313411 66992
2,GENERATED VIA SPACE-TRACK.ORG API,2018-09-14T20:16:15,18 SPCS,BREEZE-M R/B,2000-029B,EARTH,TEME,UTC,SGP4,2018-09-14T03:59:12.296256,1.00313327,0.0270259,11.9876,27.4697,265.3229,272.7138,0,U,26373,999,6700,0.0,-2.87e-06,0,42153.09,1435.502,36914.18,34635.73,ROCKET BODY,LARGE,CIS,2000-06-06,TTMTR,,2332974,123164177,0 BREEZE-M R/B,1 26373U 00029B   18257.16611454 -.00000287 +00000-0 +00000-0 0  9991,2 26373 011.9876 027.4697 0270259 265.3229 272.7138 01.00313327067007
2,GENERATED VIA SPACE-TRACK.ORG API,2018-09-15T17:02:07,18 SPCS,BREEZE-M R/B,2000-029B,EARTH,TEME,UTC,SGP4,2018-09-14T16:04:39.486144,1.00313237,0.0270276,11.988,27.4653,265.3364,94.6383,0,U,26373,999,6701,0.0,-2.86e-06,0,42153.115,1435.503,36914.278,34635.682,ROCKET BODY,LARGE,CIS,2000-06-06,TTMTR,,2333405,123183396,0 BREEZE-M R/B,1 26373U 00029B   18257.66990146 -.00000286 +00000-0 +00000-0 0  9993,2 26373 011.9880 027.4653 0270276 265.3364 094.6383 01.00313237067017
2,GENERATED VIA SPACE-TRACK.ORG API,2018-09-16T03:19:28,18 SPCS,BREEZE-M R/B,2000-029B,EARTH,TEME,UTC,SGP4,2018-09-15T15:00:35.334144,1.00313082,0.0270297,11.9889,27.4571,265.3632,79.6844,0,U,26373,999,6701,0.0,-2.84e-06,0,42153.158,1435.505,36914.411,34635.636,ROCKET BODY,LARGE,CIS,2000-06-06,TTMTR,,2333594,123194726,0 BREEZE-M R/B,1 26373U 00029B   18258.62540896 -.00000284 +00000-0 +00000-0 0  9991,2 26373 011.9889 027.4571 0270297 265.3632 079.6844 01.00313082067019
2,GENERATED VIA SPACE-TRACK.ORG API,2018-09-15T22:23:50,18 SPCS,BREEZE-M R/B,2000-029B,EARTH,TEME,UTC,SGP4,2018-09-15T16:11:57.316416,1.00313075,0.0270299,11.9889,27.4566,265.3646,97.5811,0,U,26373,999,6701,0.0,-2.83e-06,0,42153.16,1435.505,36914.421,34635.63,ROCKET BODY,LARGE,CIS,2000-06-06,TTMTR,,2333465,123187563,0 BREEZE-M R/B,1 26373U 00029B   18258.67496894 -.00000283  00000-0  00000+0 0  9992,2 26373  11.9889  27.4566 0270299 265.3646  97.5811  1.00313075 67015
2,GENERATED VIA SPACE-TRACK.ORG API,2018-09-16T22:10:01,18 SPCS,BREEZE-M R/B,2000-029B,EARTH,TEME,UTC,SGP4,2018-09-16T14:38:43.281024,1.00312904,0.0270315,11.9895,27.4485,265.3914,75.3113,0,U,26373,999,6702,0.0,-2.8e-06,0,42153.208,1435.508,36914.538,34635.609,ROCKET BODY,LARGE,CIS,2000-06-06,TTMTR,,2333962,123219233,0 BREEZE-M R/B,1 26373U 00029B   18259.61022316 -.00000280 +00000-0 +00000-0 0  9999,2 26373 011.9895 027.4485 0270315 265.3914 075.3113 01.00312904067029
2,GENERATED VIA SPACE-TRACK.ORG API,2018-09-17T17:31:14,18 SPCS,BREEZE-M R/B,2000-029B,EARTH,TEME,UTC,SGP4,2018-09-16T16:19:14.318976,1.00312894,0.0270318,11.9896,27.4479,265.3934,100.5182,0,U,26373,999,6703,0.0,-2.8e-06,0,42153.211,1435.508,36914.553,34635.599,ROCKET BODY,LARGE,CIS,2000-06-06,TTMTR,,2334457,123238984,0 BREEZE-M R/B,1 26373U 00029B   18259.68002684 -.00000280 +00000-0 +00000-0 0  9992,2 26373 011.9896 027.4479 0270318 265.3934 100.5182 01.00312894067034
